STARLINK-30433
1 57878U 23144Q   26061.16668981  .00865364  00000+0  33461-1 0  9998
2 57878  43.0022 327.2006 0001639 294.6703  27.5407 15.23096766  5711
STARLINK-30477
1 57912U 23146X   26061.16668981  .01288588  00000+0  48864-1 0  9990
2 57912  43.0017 353.0246 0001825 271.9943 268.9023 15.23088399  5817
STARLINK-30806
1 58180U 23167F   26061.16668981  .01888367  00000+0  71149-1 0  9994
2 58180  43.0015 185.6849 0001342 233.7152 239.2462 15.23116769  5825
